OBJECT_NAME,OBJECT_ID,EPOCH,MEAN_MOTION,ECCENTRICITY,INCLINATION,RA_OF_ASC_NODE,ARG_OF_PERICENTER,MEAN_ANOMALY,EPHEMERIS_TYPE,CLASSIFICATION_TYPE,NORAD_CAT_ID,ELEMENT_SET_NO,REV_AT_EPOCH,BSTAR,MEAN_MOTION_DOT,MEAN_MOTION_DDOT
ONEWEB-0132,2020-100W,2026-06-08T12:34:55.644096,13.12443498,.0001726,87.8942,352.3959,87.1541,272.9785,0,U,47278,999,26344,.14005E-2,.517E-5,0
ONEWEB-0133,2020-100X,2026-06-08T11:09:19.552032,13.12443051,.0001654,87.8955,352.3826,85.4669,274.6649,0,U,47279,999,26359,.36076E-3,.142E-5,0
ONEWEB-0134,2020-100Y,2026-06-08T12:15:23.590944,13.12444997,.000156,87.8953,352.3710,93.4165,266.7142,0,U,47280,999,26357,.4746E-3,.183E-5,0
ONEWEB-0135,2020-100Z,2026-06-08T11:33:54.855360,13.12443493,.0001464,87.8938,352.4001,89.3247,270.8049,0,U,47281,999,26359,-.12082E-2,-.422E-5,0
ONEWEB-0136,2020-100AA,2026-06-08T12:00:45.207072,13.12444382,.0001518,87.8949,352.3776,94.5013,265.6289,0,U,47282,999,26352,-.34191E-3,-.11E-5,0
ONEWEB-0137,2020-100AB,2026-06-08T10:59:46.173120,13.12442709,.0001939,87.8952,352.3953,88.9837,271.1513,0,U,47283,999,26342,.91474E-3,.342E-5,0
ONEWEB-0138,2020-100AC,2026-06-08T12:17:50.667072,13.12444194,.000163,87.8951,352.3907,93.8830,266.2485,0,U,47284,999,26351,.58126E-3,.222E-5,0
ONEWEB-0139,2020-100AD,2026-06-08T11:26:47.812128,13.12443494,.0001758,87.8949,352.3839,90.1302,270.0028,0,U,47285,999,26358,-.91194E-3,-.315E-5,0
ONEWEB-0140,2020-100AE,2026-06-08T12:10:31.137312,13.12444471,.0001697,87.8950,352.3688,83.5864,276.5458,0,U,47286,999,26355,.1557E-3,.69E-6,0
ONEWEB-0141,2020-100AF,2026-06-08T11:26:24.027072,13.12443202,.000209,87.8950,352.3794,91.1980,268.9388,0,U,47287,999,26353,-.81041E-3,-.279E-5,0
ONEWEB-0142,2020-100AG,2026-06-08T11:09:44.983008,13.12441317,.0002028,87.8943,352.4040,100.1485,259.9873,0,U,47288,999,26352,.33761E-3,.134E-5,0
ONEWEB-0143,2020-100AH,2026-06-08T11:24:09.603360,13.12443396,.000185,87.8949,352.4005,88.7341,271.3999,0,U,47289,999,26350,-.71989E-3,-.246E-5,0
ONEWEB-0144,2020-100AJ,2026-06-08T12:32:30.154272,13.12443900,.000167,87.8954,352.3646,100.7107,259.4210,0,U,47290,999,26343,.12527E-2,.463E-5,0
ONEWEB-0145,2020-100AK,2026-06-08T11:50:59.795232,13.12444083,.0001802,87.8943,352.3995,91.8466,268.2869,0,U,47291,999,26362,-.80633E-3,-.277E-5,0
ONEWEB-0146,2020-100AL,2026-06-08T11:46:07.195584,13.12444068,.0001838,87.8950,352.3912,78.2479,281.8855,0,U,47292,999,26353,-.97279E-3,-.337E-5,0
ONEWEB-0147,2020-100AM,2026-06-08T10:57:19.874592,13.12443448,.0001614,87.8950,352.3791,88.0007,272.1307,0,U,47293,999,26342,.11641E-2,.432E-5,0
ONEWEB-0115,2021-025A,2026-06-08T11:47:43.141056,13.13470374,.0001798,87.8952,321.9552,92.4711,267.6623,0,U,48042,999,25245,-.32955E-3,-.108E-5,0
ONEWEB-0152,2021-025B,2026-06-08T10:17:31.576416,13.13470379,.000177,87.8950,321.9641,90.5178,269.6154,0,U,48043,999,25240,.69764E-3,.268E-5,0
ONEWEB-0153,2021-025C,2026-06-08T11:35:31.435872,13.13469996,.0001844,87.8952,321.9572,97.1892,262.9446,0,U,48044,999,25240,-.53198E-3,-.182E-5,0
ONEWEB-0154,2021-025D,2026-06-08T11:30:38.718720,13.13469886,.0001706,87.8951,321.9549,94.6576,265.4748,0,U,48045,999,25236,-.65732E-3,-.227E-5,0
ONEWEB-0116,2021-025E,2026-06-08T10:37:00.330816,13.13469372,.000175,87.8957,321.9584,90.9870,269.1459,0,U,48046,999,25250,.91393E-3,.347E-5,0
ONEWEB-0150,2021-025F,2026-06-08T11:52:35.498784,13.13470484,.0002033,87.8955,321.9456,94.3782,265.7579,0,U,48047,999,25240,.52266E-4,.32E-6,0
ONEWEB-0107,2021-025G,2026-06-08T11:55:01.804224,13.13470532,.0001919,87.8957,321.9411,102.1073,258.0271,0,U,48048,999,25238,.24967E-3,.104E-5,0
ONEWEB-0101,2021-025H,2026-06-08T11:01:24.002112,13.13469821,.00017,87.8946,321.9648,98.4370,261.6951,0,U,48049,999,25235,.81409E-4,.42E-6,0
ONEWEB-0113,2021-025J,2026-06-08T11:40:31.020096,13.13895052,.0001845,87.8953,321.8709,92.4024,267.7316,0,U,48050,999,25246,-.45827E-3,-.156E-5,0
ONEWEB-0112,2021-025K,2026-06-08T12:02:20.796576,13.13470251,.0001658,87.8957,321.9380,101.3954,258.7362,0,U,48051,999,25245,.32203E-3,.13E-5,0
ONEWEB-0156,2021-025L,2026-06-08T12:14:31.915104,13.13470369,.0001904,87.8955,321.9464,97.4825,262.6520,0,U,48052,999,25243,.9586E-3,.363E-5,0
ONEWEB-0161,2021-025M,2026-06-08T11:37:57.719712,13.13470429,.0001912,87.8954,321.9531,99.4676,260.6669,0,U,48053,999,25236,-.63584E-3,-.219E-5,0
ONEWEB-0158,2021-025N,2026-06-08T12:29:10.601376,13.13471212,.0001603,87.8954,321.9428,90.3444,269.7868,0,U,48054,999,25249,.10427E-2,.394E-5,0
ONEWEB-0157,2021-025P,2026-06-08T11:16:01.803648,13.13468993,.0001889,87.8954,321.9586,106.6809,253.4528,0,U,48055,999,25242,-.66623E-3,-.231E-5,0
