ONEWEB-0132             
1 47278U 20100W   26159.52425514  .00000517  00000+0  14005-2 0  9996
2 47278  87.8942 352.3959 0001726  87.1541 272.9785 13.12443498263444
ONEWEB-0133             
1 47279U 20100X   26159.46480963  .00000142  00000+0  36076-3 0  9996
2 47279  87.8955 352.3826 0001654  85.4669 274.6649 13.12443051263593
ONEWEB-0134             
1 47280U 20100Y   26159.51068971  .00000183  00000+0  47460-3 0  9999
2 47280  87.8953 352.3710 0001560  93.4165 266.7142 13.12444997263579
ONEWEB-0135             
1 47281U 20100Z   26159.48188490 -.00000422  00000+0 -12082-2 0  9994
2 47281  87.8938 352.4001 0001464  89.3247 270.8049 13.12443493263599
ONEWEB-0136             
1 47282U 20100AA  26159.50052323 -.00000110  00000+0 -34191-3 0  9993
2 47282  87.8949 352.3776 0001518  94.5013 265.6289 13.12444382263528
ONEWEB-0137             
1 47283U 20100AB  26159.45817330  .00000342  00000+0  91474-3 0  9997
2 47283  87.8952 352.3953 0001939  88.9837 271.1513 13.12442709263420
ONEWEB-0138             
1 47284U 20100AC  26159.51239198  .00000222  00000+0  58126-3 0  9999
2 47284  87.8951 352.3907 0001630  93.8830 266.2485 13.12444194263518
ONEWEB-0139             
1 47285U 20100AD  26159.47694227 -.00000315  00000+0 -91194-3 0  9990
2 47285  87.8949 352.3839 0001758  90.1302 270.0028 13.12443494263580
ONEWEB-0140             
1 47286U 20100AE  26159.50730483  .00000069  00000+0  15570-3 0  9998
2 47286  87.8950 352.3688 0001697  83.5864 276.5458 13.12444471263557
ONEWEB-0141             
1 47287U 20100AF  26159.47666698 -.00000279  00000+0 -81041-3 0  9992
2 47287  87.8950 352.3794 0002090  91.1980 268.9388 13.12443202263534
ONEWEB-0142             
1 47288U 20100AG  26159.46510397  .00000134  00000+0  33761-3 0  9990
2 47288  87.8943 352.4040 0002028 100.1485 259.9873 13.12441317263527
ONEWEB-0143             
1 47289U 20100AH  26159.47511115 -.00000246  00000+0 -71989-3 0  9991
2 47289  87.8949 352.4005 0001850  88.7341 271.3999 13.12443396263503
ONEWEB-0144             
1 47290U 20100AJ  26159.52257123  .00000463  00000+0  12527-2 0  9996
2 47290  87.8954 352.3646 0001670 100.7107 259.4210 13.12443900263432
ONEWEB-0145             
1 47291U 20100AK  26159.49374763 -.00000277  00000+0 -80633-3 0  9992
2 47291  87.8943 352.3995 0001802  91.8466 268.2869 13.12444083263625
ONEWEB-0146             
1 47292U 20100AL  26159.49036106 -.00000337  00000+0 -97279-3 0  9990
2 47292  87.8950 352.3912 0001838  78.2479 281.8855 13.12444068263534
ONEWEB-0147             
1 47293U 20100AM  26159.45648003  .00000432  00000+0  11641-2 0  9994
2 47293  87.8950 352.3791 0001614  88.0007 272.1307 13.12443448263422
ONEWEB-0115             
1 48042U 21025A   26159.49147154 -.00000108  00000+0 -32955-3 0  9993
2 48042  87.8952 321.9552 0001798  92.4711 267.6623 13.13470374252458
ONEWEB-0152             
1 48043U 21025B   26159.42883769  .00000268  00000+0  69764-3 0  9999
2 48043  87.8950 321.9641 0001770  90.5178 269.6154 13.13470379252403
ONEWEB-0153             
1 48044U 21025C   26159.48300273 -.00000182  00000+0 -53198-3 0  9991
2 48044  87.8952 321.9572 0001844  97.1892 262.9446 13.13469996252400
ONEWEB-0154             
1 48045U 21025D   26159.47961480 -.00000227  00000+0 -65732-3 0  9991
2 48045  87.8951 321.9549 0001706  94.6576 265.4748 13.13469886252368
ONEWEB-0116             
1 48046U 21025E   26159.44236494  .00000347  00000+0  91393-3 0  9992
2 48046  87.8957 321.9584 0001750  90.9870 269.1459 13.13469372252505
ONEWEB-0150             
1 48047U 21025F   26159.49485531  .00000032  00000+0  52266-4 0  9994
2 48047  87.8955 321.9456 0002033  94.3782 265.7579 13.13470484252407
ONEWEB-0107             
1 48048U 21025G   26159.49654866  .00000104  00000+0  24967-3 0  9990
2 48048  87.8957 321.9411 0001919 102.1073 258.0271 13.13470532252389
ONEWEB-0101             
1 48049U 21025H   26159.45930558  .00000042  00000+0  81409-4 0  9998
2 48049  87.8946 321.9648 0001700  98.4370 261.6951 13.13469821252356
ONEWEB-0113             
1 48050U 21025J   26159.48647014 -.00000156  00000+0 -45827-3 0  9996
2 48050  87.8953 321.8709 0001845  92.4024 267.7316 13.13895052252466
ONEWEB-0112             
1 48051U 21025K   26159.50162959  .00000130  00000+0  32203-3 0  9994
2 48051  87.8957 321.9380 0001658 101.3954 258.7362 13.13470251252451
ONEWEB-0156             
1 48052U 21025L   26159.51009161  .00000363  00000+0  95860-3 0  9997
2 48052  87.8955 321.9464 0001904  97.4825 262.6520 13.13470369252437
ONEWEB-0161             
1 48053U 21025M   26159.48469583 -.00000219  00000+0 -63584-3 0  9992
2 48053  87.8954 321.9531 0001912  99.4676 260.6669 13.13470429252368
ONEWEB-0158             
1 48054U 21025N   26159.52026159  .00000394  00000+0  10427-2 0  9995
2 48054  87.8954 321.9428 0001603  90.3444 269.7868 13.13471212252490
ONEWEB-0157             
1 48055U 21025P   26159.46946532 -.00000231  00000+0 -66623-3 0  9997
2 48055  87.8954 321.9586 0001889 106.6809 253.4528 13.13468993252426
